SL-16 R/B               
1 26070U 00006B   21245.55527880  .00000065  00000-0  57428-4 0  9996
2 26070  71.0036 324.2229 0016496 179.3971 180.7175 14.15465954115179
MTI                     
1 26102U 00014A   21245.50316133  .00016877  00000-0  18763-3 0  9999
2 26102  97.4578 156.2199 0007621  44.7820 315.4004 15.62931500193379
TITAN 4B R/B            
1 26474U 00047B   21245.56678196  .00000212  00000-0  29098-4 0  9993
2 26474  67.9936 298.5256 0051270  69.4722 291.1911 14.96208442145371
ENVISAT                 
1 27386U 02009A   21245.55134293  .00000041  00000-0  27168-4 0  9996
2 27386  98.1542 235.6893 0001326  84.7527  25.9929 14.38039813 22154
IDEFIX & ARIANE 42P R/B 
1 27422U 02021B   21245.46165163  .00000018  00000-0  23451-4 0  9996
2 27422  98.4078 195.7435 0012567  11.6602 348.4870 14.29329052  8319
AQUA                    
1 27424U 02022A   21245.59164597  .00000133  00000-0  39646-4 0  9994
2 27424  98.2123 185.8228 0002235  67.8862 103.6544 14.57107415 28265
CZ-4B R/B               
1 27432U 02024C   21245.56916302 -.00000013  00000-0  17092-4 0  9990
2 27432  99.0847 261.2560 0050605  10.3806  99.8243 14.14113218996132
MIDORI II (ADEOS-II)    
1 27597U 02056A   21245.54618290  .00000031  00000-0  30283-4 0  9996
2 27597  98.5682 189.3339 0001916 106.3908 253.7484 14.27513704974883
H-2A R/B                
1 27601U 02056E   21245.55594616  .00000094  00000-0  48705-4 0  9995
2 27601  98.1879 263.4952 0072941  40.8366  71.4739 14.32013365977968
CZ-4B R/B               
1 28059U 03049C   21245.53799552  .00000043  00000-0  22206-4 0  9992
2 28059  98.4934 173.2735 0049129 226.3293 133.3826 14.52665883947018
CZ-2C R/B               
1 28222U 04012C   21245.52642323  .00000961  00000-0  60349-4 0  9996
2 28222  97.7347 217.1368 0045499 319.4239 154.9609 15.11018970952738
SL-16 R/B               
1 28353U 04021B   21245.55530611  .00000001  00000-0  25294-4 0  9995
2 28353  70.9973  92.1052 0004610 359.5891   0.5226 14.14244403889645
CZ-4B R/B               
1 28415U 04035C   21245.58074188  .00000438  00000-0  32633-4 0  9993
2 28415  97.5592 286.7913 0049616 284.3259  75.2463 15.07199483930224
CZ-2C R/B               
1 28480U 04046B   21245.55573656  .00000075  00000-0  43634-4 0  9998
2 28480  98.0513 251.3412 0141791 355.8868 112.0009 14.25760983873415
ARIANE 5 R/B            
1 28499U 04049H   21245.56622669  .00000097  00000-0  19581-4 0  9999
2 28499  98.0757 355.2357 0090656 284.7542  84.5985 14.80147371901496
CZ-2D R/B               
1 28738U 05024B   21245.58474448  .00000824  00000-0  50818-4 0  9997
2 28738  97.3604 258.8853 0013517  94.4985 265.7790 15.12518371888222
SUZAKU (ASTRO-EII)      
1 28773U 05025A   21245.53985452  .00002263  00000-0  10234-3 0  9990
2 28773  31.3825  19.9331 0004637 339.4960  20.5501 15.18622418891190
ALOS (DAICHI)           
1 28931U 06002A   21245.50760717  .00000187  00000-0  45312-4 0  9993
2 28931  97.8940 216.9026 0001935  94.0928 266.0492 14.62874356832321
H-2A R/B                
1 28932U 06002B   21245.55978833  .00000795  00000-0  78234-4 0  9993
2 28932  98.3260 266.9593 0087102 315.8028 158.4614 14.92655672847194
AKARI (ASTRO-F)         
1 28939U 06005A   21245.56920620  .00004706  00000-0  11502-3 0  9995
2 28939  98.2397 278.2727 0084834 213.0862 146.5058 15.37750309848756
RESURS-DK 1             
1 29228U 06021A   21245.43096609  .00000192  00000-0  21648-4 0  9990
2 29228  69.9358 142.6865 0003728 186.4606 173.6508 15.02738830839106
GENESIS 1               
1 29252U 06029A   21245.53078738  .00000890  00000-0  51344-4 0  9990
2 29252  64.5219 294.9499 0050793 306.4972  53.1477 15.18819176835224
CZ-4B R/B               
1 29507U 06046C   21245.55314339  .00001055  00000-0  85278-4 0  9991
2 29507  97.7632 271.3198 0048495 114.3893 246.2403 15.01095820811674
CZ-2C R/B               
1 31114U 07010B   21245.52138863 -.00000053  00000-0 -64099-5 0  9991
2 31114  98.2328  73.8148 0060719  58.5335 302.1758 14.19372374745718
COSMO-SKYMED 1          
1 31598U 07023A   21245.53686822  .00000104  00000-0  19595-4 0  9990
2 31598  97.8929  68.3421 0001419  85.6847 274.4574 14.82152197770310
GENESIS 2               
1 31789U 07028A   21245.54212408  .00000661  00000-0  42430-4 0  9995
2 31789  64.4966 337.4694 0010866  16.0417 344.1048 15.17885043782240
COSMOS 2428             
1 31792U 07029A   21245.60715503  .00000326  00000-0  20288-3 0  9995
2 31792  70.9100  63.8898 0006589 138.3604 221.8019 14.12343515731201
SL-16 R/B               
1 31793U 07029B   21245.56158196 -.00000041  00000-0  34117-5 0  9993
2 31793  70.9759  37.6418 0002361 277.0465 150.4987 14.14444160732155
KORONAS-FOTON           
1 33504U 09003A   21245.44774734  .00000788  00000-0  39115-4 0  9997
2 33504  82.4434 142.8981 0018575 184.5667 175.5400 15.16091238694319
H-2A R/B                
1 38341U 12025E   21245.51540926  .00000256  00000-0  37514-4 0  9992
2 38341  98.5281  76.2810 0054130 251.7267 107.8050 14.84263661502932
CUSAT 2 & FALCON 9 R/B  
1 39271U 13055G   21245.47907232  .00005066  00000-0  11859-3 0  9998
2 39271  80.9665 149.5494 0562834 275.5085  78.2196 14.54051110414828
CZ-2C R/B               
1 39364U 13059B   21245.54135540  .00001878  00000-0  69055-4 0  9997
2 39364  97.2060 303.6501 0044547 279.0174  80.6026 15.28219075436200
SL-4 R/B                
1 39679U 14021B   21245.44549247  .00001254  00000-0  77305-4 0  9993
2 39679  51.6145 215.2628 0170120  38.3186 322.9730 15.07096804405661
ALOS-2                  
1 39766U 14029A   21245.55945486 -.00000186  00000-0 -18093-4 0  9999
2 39766  97.9223 341.8175 0001507  84.4509 275.6867 14.79469597393060
CZ-2C R/B               
1 40306U 14071B   21245.45735181  .00007238  00000-0  13382-3 0  9994
2 40306  97.3761 204.6666 0013665   1.8465 358.2834 15.49269781382179
SL-27 R/B               
1 40354U 14084B   21245.53392981  .00001770  00000-0  42773-4 0  9999
2 40354  74.7378 192.7937 0036089 161.0190 199.2378 15.41313401376217
YAOGAN 29               
1 41038U 15069A   21245.52243459  .00000044  00000-0  12657-4 0  9998
2 41038  98.0427 239.7008 0000636  74.6149 285.5128 14.80520645311688
ASTRO-H (HITOMI)        
1 41337U 16012A   21245.28326247  .00000398  00000-0  25220-4 0  9991
2 41337  31.0050  87.9653 0012146 118.2410 241.9452 14.98882611303841
HXMT (HUIYAN)           
1 42758U 17034A   21245.46688657  .00000768  00000-0  60900-4 0  9995
2 42758  43.0165 130.3710 0009978 282.3951  79.4824 15.09286838232657
CZ-2C R/B               
1 43521U 18054D   21245.55859253  .00000765  00000-0  43070-4 0  9995
2 43521  35.1543 334.1136 0081044  58.6972 302.1646 15.11646224176078
AEOLUS                  
1 43600U 18066A   21245.55274312  .00043014  00000-0  16580-3 0  9992
2 43600  96.7145 251.1821 0004773  87.9338 272.2482 15.87197465175470
SAOCOM 1A               
1 43641U 18076A   21245.54529924 -.00000270  00000-0 -27338-4 0  9992
2 43641  97.8896  71.3675 0001435  78.7115 281.4416 14.82144837157087
SAOCOM 1B               
1 46265U 20059A   21245.44140776  .00000037  00000-0  11208-4 0  9992
2 46265  97.8903  70.3250 0001460  77.0891 283.0494 14.82155411 54462
2020-063G               
1 46395U 20063G   21245.57325062  .00040323  11718-4  12410-3 0  9997
2 46395  50.2005 275.9853 0006893  74.7028 285.4720 15.92593124 57555
SL-4 R/B                
1 47547U 21008B   21245.48612024  .00057514  56652-5  19266-3 0  9997
2 47547  67.1381 164.1585 0360899 253.3514 102.7736 15.31976845 32126
TIANHE                  
1 48274U 21035A   21245.49357639  .00013451  00000-0  15558-3 0  9997
2 48274  41.4686 171.3011 0001030 253.6211  96.0909 15.61614826 19782
